[{"OBJECT_NAME":"YAOGAN-24","OBJECT_ID":"2014-072A","EPOCH":"2026-03-09T23:33:58.619808","MEAN_MOTION":14.76230497,"ECCENTRICITY":0.00123495,"INCLINATION":98.131,"RA_OF_ASC_NODE":205.5775,"ARG_OF_PERICENTER":217.5868,"MEAN_ANOMALY":142.4479,"EPHEMERIS_TYPE":0,"CLASSIFICATION_TYPE":"U","NORAD_CAT_ID":40310,"ELEMENT_SET_NO":999,"REV_AT_EPOCH":60908,"BSTAR":0.00015342398,"MEAN_MOTION_DOT":1.01e-5,"MEAN_MOTION_DDOT":0},{"OBJECT_NAME":"BASIL","OBJECT_ID":"2025-185E","EPOCH":"2026-03-09T17:13:07.241088","MEAN_MOTION":14.77353126,"ECCENTRICITY":0.00114241,"INCLINATION":97.9635,"RA_OF_ASC_NODE":153.1696,"ARG_OF_PERICENTER":56.4063,"MEAN_ANOMALY":303.8236,"EPHEMERIS_TYPE":0,"CLASSIFICATION_TYPE":"U","NORAD_CAT_ID":65301,"ELEMENT_SET_NO":999,"REV_AT_EPOCH":2914,"BSTAR":0.00086699365,"MEAN_MOTION_DOT":6.12e-5,"MEAN_MOTION_DDOT":0}]
